IRIDIUM 39              
1 25042U 97069D   25100.94417301  .00001808  00000+0  46989-3 0  9996
2 25042  86.3908 239.9427 0018455 165.3529 194.8214 14.49097225439489
IRIDIUM 38              
1 25043U 97069E   25100.81441492  .00001096  00000+0  35591-3 0  9997
2 25043  86.3911 261.5001 0001598  31.5641 328.5652 14.38032127436276
IRIDIUM 42              
1 25077U 97077A   25101.71336405  .00001026  00000+0  34486-3 0  9995
2 25077  86.3909 267.2149 0001874  71.2636 288.8764 14.36275645431659
IRIDIUM 44              
1 25078U 97077B   25101.63875303  .00001106  00000+0  34414-3 0  9992
2 25078  86.3933 249.3308 0000895 155.6375 204.4866 14.40165404434155
IRIDIUM 45              
1 25104U 97082A   25100.48907879  .00028022  00000+0  10836-2 0  9991
2 25104  86.3550  80.6952 0120941 223.5325 135.6326 15.19437446441751
IRIDIUM 24              
1 25105U 97082B   25101.76654175  .00001092  00000+0  32700-3 0  9995
2 25105  86.3855 108.4828 0009372 304.5941  55.4375 14.42007251433890
IRIDIUM 51              
1 25262U 98018A   25101.24251849  .00045303  00000+0  11612-2 0  9994
2 25262  86.3806  88.8486 0099248 144.8600 215.9253 15.34182633436968
