<?xml version="1.0" encoding="UTF-8"?>
<ndm xmlns:xsi="http://www.w3.org/2001/XMLSchema-instance" xsi:noNamespaceSchemaLocation="https://sanaregistry.org/r/ndmxml_unqualified/ndmxml-2.0.0-master-2.0.xsd">
<omm id="CCSDS_OMM_VERS" version="2.0">
<header><CREATION_DATE/><ORIGINATOR/></header><body><segment><metadata><OBJECT_NAME>IRIDIUM 39</OBJECT_NAME><OBJECT_ID>1997-069D</OBJECT_ID><CENTER_NAME>EARTH</CENTER_NAME><REF_FRAME>TEME</REF_FRAME><TIME_SYSTEM>UTC</TIME_SYSTEM><MEAN_ELEMENT_THEORY>SGP4</MEAN_ELEMENT_THEORY></metadata><data><meanElements><EPOCH>2025-04-10T22:39:36.548064</EPOCH><MEAN_MOTION>14.49097225</MEAN_MOTION><ECCENTRICITY>.0018455</ECCENTRICITY><INCLINATION>86.3908</INCLINATION><RA_OF_ASC_NODE>239.9427</RA_OF_ASC_NODE><ARG_OF_PERICENTER>165.3529</ARG_OF_PERICENTER><MEAN_ANOMALY>194.8214</MEAN_ANOMALY></meanElements><tleParameters><EPHEMERIS_TYPE>0</EPHEMERIS_TYPE><CLASSIFICATION_TYPE>U</CLASSIFICATION_TYPE><NORAD_CAT_ID>25042</NORAD_CAT_ID><ELEMENT_SET_NO>999</ELEMENT_SET_NO><REV_AT_EPOCH>43948</REV_AT_EPOCH><BSTAR>.46989E-3</BSTAR><MEAN_MOTION_DOT>.1808E-4</MEAN_MOTION_DOT><MEAN_MOTION_DDOT>0</MEAN_MOTION_DDOT></tleParameters></data></segment></body></omm>
<omm id="CCSDS_OMM_VERS" version="2.0">
<header><CREATION_DATE/><ORIGINATOR/></header><body><segment><metadata><OBJECT_NAME>IRIDIUM 38</OBJECT_NAME><OBJECT_ID>1997-069E</OBJECT_ID><CENTER_NAME>EARTH</CENTER_NAME><REF_FRAME>TEME</REF_FRAME><TIME_SYSTEM>UTC</TIME_SYSTEM><MEAN_ELEMENT_THEORY>SGP4</MEAN_ELEMENT_THEORY></metadata><data><meanElements><EPOCH>2025-04-10T19:32:45.449088</EPOCH><MEAN_MOTION>14.38032127</MEAN_MOTION><ECCENTRICITY>.0001598</ECCENTRICITY><INCLINATION>86.3911</INCLINATION><RA_OF_ASC_NODE>261.5001</RA_OF_ASC_NODE><ARG_OF_PERICENTER>31.5641</ARG_OF_PERICENTER><MEAN_ANOMALY>328.5652</MEAN_ANOMALY></meanElements><tleParameters><EPHEMERIS_TYPE>0</EPHEMERIS_TYPE><CLASSIFICATION_TYPE>U</CLASSIFICATION_TYPE><NORAD_CAT_ID>25043</NORAD_CAT_ID><ELEMENT_SET_NO>999</ELEMENT_SET_NO><REV_AT_EPOCH>43627</REV_AT_EPOCH><BSTAR>.35591E-3</BSTAR><MEAN_MOTION_DOT>.1096E-4</MEAN_MOTION_DOT><MEAN_MOTION_DDOT>0</MEAN_MOTION_DDOT></tleParameters></data></segment></body></omm>
<omm id="CCSDS_OMM_VERS" version="2.0">
<header><CREATION_DATE/><ORIGINATOR/></header><body><segment><metadata><OBJECT_NAME>IRIDIUM 42</OBJECT_NAME><OBJECT_ID>1997-077A</OBJECT_ID><CENTER_NAME>EARTH</CENTER_NAME><REF_FRAME>TEME</REF_FRAME><TIME_SYSTEM>UTC</TIME_SYSTEM><MEAN_ELEMENT_THEORY>SGP4</MEAN_ELEMENT_THEORY></metadata><data><meanElements><EPOCH>2025-04-11T17:07:14.653920</EPOCH><MEAN_MOTION>14.36275645</MEAN_MOTION><ECCENTRICITY>.0001874</ECCENTRICITY><INCLINATION>86.3909</INCLINATION><RA_OF_ASC_NODE>267.2149</RA_OF_ASC_NODE><ARG_OF_PERICENTER>71.2636</ARG_OF_PERICENTER><MEAN_ANOMALY>288.8764</MEAN_ANOMALY></meanElements><tleParameters><EPHEMERIS_TYPE>0</EPHEMERIS_TYPE><CLASSIFICATION_TYPE>U</CLASSIFICATION_TYPE><NORAD_CAT_ID>25077</NORAD_CAT_ID><ELEMENT_SET_NO>999</ELEMENT_SET_NO><REV_AT_EPOCH>43165</REV_AT_EPOCH><BSTAR>.34486E-3</BSTAR><MEAN_MOTION_DOT>.1026E-4</MEAN_MOTION_DOT><MEAN_MOTION_DDOT>0</MEAN_MOTION_DDOT></tleParameters></data></segment></body></omm>
<omm id="CCSDS_OMM_VERS" version="2.0">
<header><CREATION_DATE/><ORIGINATOR/></header><body><segment><metadata><OBJECT_NAME>IRIDIUM 44</OBJECT_NAME><OBJECT_ID>1997-077B</OBJECT_ID><CENTER_NAME>EARTH</CENTER_NAME><REF_FRAME>TEME</REF_FRAME><TIME_SYSTEM>UTC</TIME_SYSTEM><MEAN_ELEMENT_THEORY>SGP4</MEAN_ELEMENT_THEORY></metadata><data><meanElements><EPOCH>2025-04-11T15:19:48.261792</EPOCH><MEAN_MOTION>14.40165404</MEAN_MOTION><ECCENTRICITY>.0000895</ECCENTRICITY><INCLINATION>86.3933</INCLINATION><RA_OF_ASC_NODE>249.3308</RA_OF_ASC_NODE><ARG_OF_PERICENTER>155.6375</ARG_OF_PERICENTER><MEAN_ANOMALY>204.4866</MEAN_ANOMALY></meanElements><tleParameters><EPHEMERIS_TYPE>0</EPHEMERIS_TYPE><CLASSIFICATION_TYPE>U</CLASSIFICATION_TYPE><NORAD_CAT_ID>25078</NORAD_CAT_ID><ELEMENT_SET_NO>999</ELEMENT_SET_NO><REV_AT_EPOCH>43415</REV_AT_EPOCH><BSTAR>.34414E-3</BSTAR><MEAN_MOTION_DOT>.1106E-4</MEAN_MOTION_DOT><MEAN_MOTION_DDOT>0</MEAN_MOTION_DDOT></tleParameters></data></segment></body></omm>
<omm id="CCSDS_OMM_VERS" version="2.0">
<header><CREATION_DATE/><ORIGINATOR/></header><body><segment><metadata><OBJECT_NAME>IRIDIUM 45</OBJECT_NAME><OBJECT_ID>1997-082A</OBJECT_ID><CENTER_NAME>EARTH</CENTER_NAME><REF_FRAME>TEME</REF_FRAME><TIME_SYSTEM>UTC</TIME_SYSTEM><MEAN_ELEMENT_THEORY>SGP4</MEAN_ELEMENT_THEORY></metadata><data><meanElements><EPOCH>2025-04-10T11:44:16.407456</EPOCH><MEAN_MOTION>15.19437446</MEAN_MOTION><ECCENTRICITY>.0120941</ECCENTRICITY><INCLINATION>86.3550</INCLINATION><RA_OF_ASC_NODE>80.6952</RA_OF_ASC_NODE><ARG_OF_PERICENTER>223.5325</ARG_OF_PERICENTER><MEAN_ANOMALY>135.6326</MEAN_ANOMALY></meanElements><tleParameters><EPHEMERIS_TYPE>0</EPHEMERIS_TYPE><CLASSIFICATION_TYPE>U</CLASSIFICATION_TYPE><NORAD_CAT_ID>25104</NORAD_CAT_ID><ELEMENT_SET_NO>999</ELEMENT_SET_NO><REV_AT_EPOCH>44175</REV_AT_EPOCH><BSTAR>.10836E-2</BSTAR><MEAN_MOTION_DOT>.28022E-3</MEAN_MOTION_DOT><MEAN_MOTION_DDOT>0</MEAN_MOTION_DDOT></tleParameters></data></segment></body></omm>
<omm id="CCSDS_OMM_VERS" version="2.0">
<header><CREATION_DATE/><ORIGINATOR/></header><body><segment><metadata><OBJECT_NAME>IRIDIUM 24</OBJECT_NAME><OBJECT_ID>1997-082B</OBJECT_ID><CENTER_NAME>EARTH</CENTER_NAME><REF_FRAME>TEME</REF_FRAME><TIME_SYSTEM>UTC</TIME_SYSTEM><MEAN_ELEMENT_THEORY>SGP4</MEAN_ELEMENT_THEORY></metadata><data><meanElements><EPOCH>2025-04-11T18:23:49.207200</EPOCH><MEAN_MOTION>14.42007251</MEAN_MOTION><ECCENTRICITY>.0009372</ECCENTRICITY><INCLINATION>86.3855</INCLINATION><RA_OF_ASC_NODE>108.4828</RA_OF_ASC_NODE><ARG_OF_PERICENTER>304.5941</ARG_OF_PERICENTER><MEAN_ANOMALY>55.4375</MEAN_ANOMALY></meanElements><tleParameters><EPHEMERIS_TYPE>0</EPHEMERIS_TYPE><CLASSIFICATION_TYPE>U</CLASSIFICATION_TYPE><NORAD_CAT_ID>25105</NORAD_CAT_ID><ELEMENT_SET_NO>999</ELEMENT_SET_NO><REV_AT_EPOCH>43389</REV_AT_EPOCH><BSTAR>.327E-3</BSTAR><MEAN_MOTION_DOT>.1092E-4</MEAN_MOTION_DOT><MEAN_MOTION_DDOT>0</MEAN_MOTION_DDOT></tleParameters></data></segment></body></omm>
<omm id="CCSDS_OMM_VERS" version="2.0">
<header><CREATION_DATE/><ORIGINATOR/></header><body><segment><metadata><OBJECT_NAME>IRIDIUM 51</OBJECT_NAME><OBJECT_ID>1998-018A</OBJECT_ID><CENTER_NAME>EARTH</CENTER_NAME><REF_FRAME>TEME</REF_FRAME><TIME_SYSTEM>UTC</TIME_SYSTEM><MEAN_ELEMENT_THEORY>SGP4</MEAN_ELEMENT_THEORY></metadata><data><meanElements><EPOCH>2025-04-11T05:49:13.597536</EPOCH><MEAN_MOTION>15.34182633</MEAN_MOTION><ECCENTRICITY>.0099248</ECCENTRICITY><INCLINATION>86.3806</INCLINATION><RA_OF_ASC_NODE>88.8486</RA_OF_ASC_NODE><ARG_OF_PERICENTER>144.8600</ARG_OF_PERICENTER><MEAN_ANOMALY>215.9253</MEAN_ANOMALY></meanElements><tleParameters><EPHEMERIS_TYPE>0</EPHEMERIS_TYPE><CLASSIFICATION_TYPE>U</CLASSIFICATION_TYPE><NORAD_CAT_ID>25262</NORAD_CAT_ID><ELEMENT_SET_NO>999</ELEMENT_SET_NO><REV_AT_EPOCH>43696</REV_AT_EPOCH><BSTAR>.11612E-2</BSTAR><MEAN_MOTION_DOT>.45303E-3</MEAN_MOTION_DOT><MEAN_MOTION_DDOT>0</MEAN_MOTION_DDOT></tleParameters></data></segment></body></omm>

</ndm>
